start=new Date('2023-05-24T00:00:00.000Z').valueOf();
sats=[{"EPHEMERIS_TYPE":"0","NORAD_CAT_ID":"53244","PERIOD":"95.437","OBJECT_TYPE":"PAYLOAD","COUNTRY_CODE":"US","RCS_SIZE":"LARGE","CLASSIFICATION_TYPE":"U","ECCENTRICITY":"0.00011930","OBJECT_NAME":"STARLINK-4125","PERIAPSIS":"538.899","SEMIMAJOR_AXIS":"6917.859","MEAN_ANOMALY":"259.8392","ARG_OF_PERICENTER":"100.2735","FILE":"3915766","MEAN_MOTION_DOT":"0.00002086","MEAN_MOTION":"15.08846855","REF_FRAME":"TEME","MEAN_ELEMENT_THEORY":"SGP4","DECAY_DATE":null,"INCLINATION":"53.2163","REV_AT_EPOCH":"4703","OBJECT_ID":"2022-086C","TIME_SYSTEM":"UTC","EPOCH":"2023-05-23T04:56:24.076608","ELEMENT_SET_NO":"999","MEAN_MOTION_DDOT":"0.0000000000000","BSTAR":"0.00014911000000","GP_ID":"232404442","SITE":"AFETR","APOAPSIS":"540.550","TLE_LINE2":"2 53244  53.2163 109.7411 0001193 100.2735 259.8392 15.08846855 47037","CENTER_NAME":"EARTH","RA_OF_ASC_NODE":"109.7411","TLE_LINE1":"1 53244U 22086C   23143.20583422  .00002086  00000-0  14911-3 0  9990","LAUNCH_DATE":"2022-07-24"},{"REF_FRAME":"TEME","MEAN_MOTION_DOT":"-0.00002358","MEAN_MOTION":"15.08857637","DECAY_DATE":null,"MEAN_ELEMENT_THEORY":"SGP4","FILE":"3915766","ARG_OF_PERICENTER":"93.7541","MEAN_ANOMALY":"266.3663","SEMIMAJOR_AXIS":"6917.826","ECCENTRICITY":"0.00018540","OBJECT_NAME":"STARLINK-4124","PERIAPSIS":"538.409","OBJECT_TYPE":"PAYLOAD","COUNTRY_CODE":"US","RCS_SIZE":"LARGE","CLASSIFICATION_TYPE":"U","EPHEMERIS_TYPE":"0","NORAD_CAT_ID":"53245","PERIOD":"95.436","LAUNCH_DATE":"2022-07-24","TLE_LINE1":"1 53245U 22086D   23143.34567415 -.00002358  00000-0 -13003-3 0  9995","RA_OF_ASC_NODE":"109.1113","APOAPSIS":"540.974","SITE":"AFETR","TLE_LINE2":"2 53245  53.2160 109.1113 0001854  93.7541 266.3663 15.08857637 47071","CENTER_NAME":"EARTH","BSTAR":"-0.00013003000000","GP_ID":"232404692","MEAN_MOTION_DDOT":"0.0000000000000","TIME_SYSTEM":"UTC","EPOCH":"2023-05-23T08:17:46.246560","ELEMENT_SET_NO":"999","INCLINATION":"53.2160","OBJECT_ID":"2022-086D","REV_AT_EPOCH":"4707"},{"MEAN_ANOMALY":"266.6700","ARG_OF_PERICENTER":"93.4430","FILE":"3915444","MEAN_MOTION":"15.08841791","MEAN_MOTION_DOT":"0.00000251","REF_FRAME":"TEME","DECAY_DATE":null,"MEAN_ELEMENT_THEORY":"SGP4","EPHEMERIS_TYPE":"0","PERIOD":"95.437","NORAD_CAT_ID":"53246","COUNTRY_CODE":"US","OBJECT_TYPE":"PAYLOAD","RCS_SIZE":"LARGE","CLASSIFICATION_TYPE":"U","ECCENTRICITY":"0.00012060","OBJECT_NAME":"STARLINK-4131","PERIAPSIS":"538.906","SEMIMAJOR_AXIS":"6917.875","APOAPSIS":"540.574","SITE":"AFETR","TLE_LINE2":"2 53246  53.2170 109.7252 0001206  93.4430 266.6700 15.08841791 46537","CENTER_NAME":"EARTH","RA_OF_ASC_NODE":"109.7252","TLE_LINE1":"1 53246U 22086E   23143.20952020  .00000251  00000-0  33854-4 0  9996","LAUNCH_DATE":"2022-07-24","INCLINATION":"53.2170","OBJECT_ID":"2022-086E","REV_AT_EPOCH":"4653","TIME_SYSTEM":"UTC","EPOCH":"2023-05-23T05:01:42.545280","ELEMENT_SET_NO":"999","MEAN_MOTION_DDOT":"0.0000000000000","BSTAR":"0.00003385400000","GP_ID":"232373906"},{"SEMIMAJOR_AXIS":"6917.845","ECCENTRICITY":"0.00013840","OBJECT_NAME":"STARLINK-4061","PERIAPSIS":"538.752","COUNTRY_CODE":"US","RCS_SIZE":"LARGE","OBJECT_TYPE":"PAYLOAD","CLASSIFICATION_TYPE":"U","EPHEMERIS_TYPE":"0","PERIOD":"95.437","NORAD_CAT_ID":"53247","MEAN_MOTION_DOT":"0.00007237","REF_FRAME":"TEME","MEAN_MOTION":"15.08851628","DECAY_DATE":null,"MEAN_ELEMENT_THEORY":"SGP4","FILE":"3915766","ARG_OF_PERICENTER":"78.4948","MEAN_ANOMALY":"281.6200","BSTAR":"0.00047218000000","GP_ID":"232405693","MEAN_MOTION_DDOT":"0.0000000000000","TIME_SYSTEM":"UTC","EPOCH":"2023-05-23T21:25:24.641184","ELEMENT_SET_NO":"999","REV_AT_EPOCH":"4720","OBJECT_ID":"2022-086F","INCLINATION":"53.2154","LAUNCH_DATE":"2022-07-24","TLE_LINE1":"1 53247U 22086F   23143.89264631  .00007237  00000-0  47218-3 0  9995","RA_OF_ASC_NODE":"101.8339","APOAPSIS":"540.667","SITE":"AFETR","TLE_LINE2":"2 53247  53.2154 101.8339 0001384  78.4948 281.6200 15.08851628 47200","CENTER_NAME":"EARTH"},{"FILE":"3915766","MEAN_MOTION_DOT":"0.00000960","REF_FRAME":"TEME","MEAN_MOTION":"15.08835457","DECAY_DATE":null,"MEAN_ELEMENT_THEORY":"SGP4","MEAN_ANOMALY":"243.3696","ARG_OF_PERICENTER":"116.7430","ECCENTRICITY":"0.00013110","PERIAPSIS":"538.852","OBJECT_NAME":"STARLINK-4135","SEMIMAJOR_AXIS":"6917.894","EPHEMERIS_TYPE":"0","PERIOD":"95.438","NORAD_CAT_ID":"53248","CLASSIFICATION_TYPE":"U","COUNTRY_CODE":"US","RCS_SIZE":"LARGE","OBJECT_TYPE":"PAYLOAD","TLE_LINE1":"1 53248U 22086G   23143.88159738  .00000960  00000-0  78429-4 0  9991","LAUNCH_DATE":"2022-07-24","APOAPSIS":"540.666","SITE":"AFETR","CENTER_NAME":"EARTH","TLE_LINE2":"2 53248  53.2168 101.8096 0001311 116.7430 243.3696 15.08835457 47204","RA_OF_ASC_NODE":"101.8096","MEAN_MOTION_DDOT":"0.0000000000000","GP_ID":"232404943","BSTAR":"0.00007842900000","REV_AT_EPOCH":"4720","INCLINATION":"53.2168","OBJECT_ID":"2022-086G","TIME_SYSTEM":"UTC","ELEMENT_SET_NO":"999","EPOCH":"2023-05-23T21:09:30.013632"},{"ECCENTRICITY":"0.00013920","PERIAPSIS":"540.310","OBJECT_NAME":"STARLINK-4128","SEMIMAJOR_AXIS":"6919.408","EPHEMERIS_TYPE":"0","PERIOD":"95.469","NORAD_CAT_ID":"53249","CLASSIFICATION_TYPE":"U","COUNTRY_CODE":"US","OBJECT_TYPE":"PAYLOAD","RCS_SIZE":"LARGE","FILE":"3915766","REF_FRAME":"TEME","MEAN_MOTION_DOT":"-0.00053127","MEAN_MOTION":"15.08340247","MEAN_ELEMENT_THEORY":"SGP4","DECAY_DATE":null,"MEAN_ANOMALY":"274.6273","ARG_OF_PERICENTER":"85.4878","MEAN_MOTION_DDOT":"0.0000000000000","GP_ID":"232405193","BSTAR":"-0.00339090000000","REV_AT_EPOCH":"4697","OBJECT_ID":"2022-086H","INCLINATION":"53.2186","TIME_SYSTEM":"UTC","ELEMENT_SET_NO":"999","EPOCH":"2023-05-23T21:13:43.589856","TLE_LINE1":"1 53249U 22086H   23143.88453229 -.00053127  00000-0 -33909-2 0  9991","LAUNCH_DATE":"2022-07-24","APOAPSIS":"542.237","SITE":"AFETR","CENTER_NAME":"EARTH","TLE_LINE2":"2 53249  53.2186  96.6969 0001392  85.4878 274.6273 15.08340247 46971","RA_OF_ASC_NODE":"96.6969"},{"OBJECT_NAME":"STARLINK-4059","PERIAPSIS":"538.833","ECCENTRICITY":"0.00013450","SEMIMAJOR_AXIS":"6917.899","NORAD_CAT_ID":"53250","PERIOD":"95.438","EPHEMERIS_TYPE":"0","RCS_SIZE":"LARGE","COUNTRY_CODE":"US","OBJECT_TYPE":"PAYLOAD","CLASSIFICATION_TYPE":"U","FILE":"3915766","DECAY_DATE":null,"MEAN_ELEMENT_THEORY":"SGP4","MEAN_MOTION_DOT":"0.00000916","MEAN_MOTION":"15.08833985","REF_FRAME":"TEME","MEAN_ANOMALY":"250.6651","ARG_OF_PERICENTER":"109.4486","MEAN_MOTION_DDOT":"0.0000000000000","BSTAR":"0.00007566700000","GP_ID":"232405945","OBJECT_ID":"2022-086J","INCLINATION":"53.2171","REV_AT_EPOCH":"4697","EPOCH":"2023-05-23T21:18:05.374080","ELEMENT_SET_NO":"999","TIME_SYSTEM":"UTC","TLE_LINE1":"1 53250U 22086J   23143.88756220  .00000916  00000-0  75667-4 0  9995","LAUNCH_DATE":"2022-07-24","TLE_LINE2":"2 53250  53.2171  96.6742 0001345 109.4486 250.6651 15.08833985 46976","CENTER_NAME":"EARTH","APOAPSIS":"540.694","SITE":"AFETR","RA_OF_ASC_NODE":"96.6742"},{"ECCENTRICITY":"0.00013930","OBJECT_NAME":"STARLINK-4129","PERIAPSIS":"538.760","SEMIMAJOR_AXIS":"6917.859","EPHEMERIS_TYPE":"0","PERIOD":"95.437","NORAD_CAT_ID":"53251","COUNTRY_CODE":"US","RCS_SIZE":"LARGE","OBJECT_TYPE":"PAYLOAD","CLASSIFICATION_TYPE":"U","FILE":"3915766","MEAN_MOTION_DOT":"0.00005286","MEAN_MOTION":"15.08846951","REF_FRAME":"TEME","DECAY_DATE":null,"MEAN_ELEMENT_THEORY":"SGP4","MEAN_ANOMALY":"267.9102","ARG_OF_PERICENTER":"92.2049","MEAN_MOTION_DDOT":"0.0000000000000","BSTAR":"0.00034987000000","GP_ID":"232406194","REV_AT_EPOCH":"4686","INCLINATION":"53.2171","OBJECT_ID":"2022-086K","TIME_SYSTEM":"UTC","EPOCH":"2023-05-23T06:43:43.387392","ELEMENT_SET_NO":"999","TLE_LINE1":"1 53251U 22086K   23143.28036328  .00005286  00000-0  34987-3 0  9994","LAUNCH_DATE":"2022-07-24","APOAPSIS":"540.688","SITE":"AFETR","TLE_LINE2":"2 53251  53.2171  99.4015 0001393  92.2049 267.9102 15.08846951 46865","CENTER_NAME":"EARTH","RA_OF_ASC_NODE":"99.4015"},{"MEAN_MOTION_DDOT":"0.0000000000000","BSTAR":"0.00021599000000","GP_ID":"232404443","OBJECT_ID":"2022-086L","INCLINATION":"53.2163","REV_AT_EPOCH":"4688","EPOCH":"2023-05-23T06:49:00.960096","ELEMENT_SET_NO":"999","TIME_SYSTEM":"UTC","TLE_LINE1":"1 53252U 22086L   23143.28403889  .00003150  00000-0  21599-3 0  9998","LAUNCH_DATE":"2022-07-24","TLE_LINE2":"2 53252  53.2163  99.3345 0001086  71.6413 288.4697 15.08830690 46889","CENTER_NAME":"EARTH","SITE":"AFETR","APOAPSIS":"540.525","RA_OF_ASC_NODE":"99.3345","OBJECT_NAME":"STARLINK-4132","PERIAPSIS":"539.023","ECCENTRICITY":"0.00010860","SEMIMAJOR_AXIS":"6917.909","NORAD_CAT_ID":"53252","PERIOD":"95.438","EPHEMERIS_TYPE":"0","COUNTRY_CODE":"US","OBJECT_TYPE":"PAYLOAD","RCS_SIZE":"LARGE","CLASSIFICATION_TYPE":"U","FILE":"3915766","MEAN_ELEMENT_THEORY":"SGP4","DECAY_DATE":null,"MEAN_MOTION":"15.08830690","MEAN_MOTION_DOT":"0.00003150","REF_FRAME":"TEME","MEAN_ANOMALY":"288.4697","ARG_OF_PERICENTER":"71.6413"},{"ARG_OF_PERICENTER":"86.1202","MEAN_ANOMALY":"273.9926","MEAN_ELEMENT_THEORY":"SGP4","DECAY_DATE":null,"REF_FRAME":"TEME","MEAN_MOTION_DOT":"0.00000275","MEAN_MOTION":"15.08850615","FILE":"3915766","OBJECT_TYPE":"PAYLOAD","COUNTRY_CODE":"US","RCS_SIZE":"LARGE","CLASSIFICATION_TYPE":"U","NORAD_CAT_ID":"53253","PERIOD":"95.437","EPHEMERIS_TYPE":"0","SEMIMAJOR_AXIS":"6917.848","OBJECT_NAME":"STARLINK-4133","PERIAPSIS":"538.892","ECCENTRICITY":"0.00011870","RA_OF_ASC_NODE":"99.4190","TLE_LINE2":"2 53253  53.2153  99.4190 0001187  86.1202 273.9926 15.08850615 46868","CENTER_NAME":"EARTH","APOAPSIS":"540.534","SITE":"AFETR","LAUNCH_DATE":"2022-07-24","TLE_LINE1":"1 53253U 22086M   23143.27667769  .00000275  00000-0  35373-4 0  9998","EPOCH":"2023-05-23T06:38:24.952416","ELEMENT_SET_NO":"999","TIME_SYSTEM":"UTC","OBJECT_ID":"2022-086M","REV_AT_EPOCH":"4686","INCLINATION":"53.2153","BSTAR":"0.00003537300000","GP_ID":"232404693","MEAN_MOTION_DDOT":"0.0000000000000"}];
